{
  "type": "FeatureCollection",
  "features": [
    {
      "type": "Feature",
      "properties": {
        "norad_id": 30737,
        "name": "FENGYUN 1C DEB",
        "group": "fengyun-1c-debris",
        "lat": 26.432418065710685,
        "lon": 149.56513522437635,
        "alt_km": 813.3974637112906,
        "timestamp": "2025-12-08T19:31:49.087558+00:00",
        "meta_object_name": "FENGYUN 1C DEB",
        "meta_object_id": "1999-025ASX",
        "meta_epoch": "2025-12-06T09:58:29.731296",
        "meta_mean_motion": 14.18241685,
        "meta_eccentricity": 0.00238088,
        "meta_inclination": 98.5787,
        "meta_ra_of_asc_node": 322.9437,
        "meta_arg_of_pericenter": 149.3908,
        "meta_mean_anomaly": 6.4793,
        "meta_ephemeris_type": 0,
        "meta_classification_type": "U",
        "meta_norad_cat_id": 30737,
        "meta_element_set_no": 999,
        "meta_rev_at_epoch": 96943,
        "meta_bstar": 0.00053073194,
        "meta_mean_motion_dot": 1.053e-05,
        "meta_mean_motion_ddot": 0,
        "tle_line1": "1 30737U 99025ASX 25340.41562189  .00001053  00000+0  53073-3 0  9994",
        "tle_line2": "2 30737  98.5787 322.9437 0023808 149.3908   6.4793 14.18241685969431"
      },
      "geometry": {
        "type": "Point",
        "coordinates": [
          149.56513522437635,
          26.432418065710685
        ]
      }
    },
    {
      "type": "Feature",
      "properties": {
        "norad_id": 30739,
        "name": "FENGYUN 1C DEB",
        "group": "fengyun-1c-debris",
        "lat": -44.121037712731074,
        "lon": -21.420281816156688,
        "alt_km": 778.2789260391328,
        "timestamp": "2025-12-08T19:31:49.087568+00:00",
        "meta_object_name": "FENGYUN 1C DEB",
        "meta_object_id": "1999-025ASZ",
        "meta_epoch": "2025-12-08T04:44:35.154240",
        "meta_mean_motion": 14.14939293,
        "meta_eccentricity": 0.01007314,
        "meta_inclination": 98.6916,
        "meta_ra_of_asc_node": 329.4485,
        "meta_arg_of_pericenter": 330.2327,
        "meta_mean_anomaly": 88.6569,
        "meta_ephemeris_type": 0,
        "meta_classification_type": "U",
        "meta_norad_cat_id": 30739,
        "meta_element_set_no": 999,
        "meta_rev_at_epoch": 96799,
        "meta_bstar": 0.0007130429,
        "meta_mean_motion_dot": 1.404e-05,
        "meta_mean_motion_ddot": 0,
        "tle_line1": "1 30739U 99025ASZ 25342.19762910  .00001404  00000+0  71304-3 0  9994",
        "tle_line2": "2 30739  98.6916 329.4485 0100731 330.2327  88.6569 14.14939293967997"
      },
      "geometry": {
        "type": "Point",
        "coordinates": [
          -21.420281816156688,
          -44.121037712731074
        ]
      }
    },
    {
      "type": "Feature",
      "properties": {
        "norad_id": 30740,
        "name": "FENGYUN 1C DEB",
        "group": "fengyun-1c-debris",
        "lat": 7.836082942119939,
        "lon": -91.01181247262768,
        "alt_km": 700.7144790028287,
        "timestamp": "2025-12-08T19:31:49.087577+00:00",
        "meta_object_name": "FENGYUN 1C DEB",
        "meta_object_id": "1999-025ATA",
        "meta_epoch": "2025-12-07T17:55:50.839680",
        "meta_mean_motion": 14.51761735,
        "meta_eccentricity": 0.00324355,
        "meta_inclination": 98.6902,
        "meta_ra_of_asc_node": 86.6793,
        "meta_arg_of_pericenter": 150.5496,
        "meta_mean_anomaly": 209.7534,
        "meta_ephemeris_type": 0,
        "meta_classification_type": "U",
        "meta_norad_cat_id": 30740,
        "meta_element_set_no": 999,
        "meta_rev_at_epoch": 97575,
        "meta_bstar": 0.0045816445,
        "meta_mean_motion_dot": 0.00018541,
        "meta_mean_motion_ddot": 0,
        "tle_line1": "1 30740U 99025ATA 25341.74711620  .00018541  00000+0  45816-2 0  9996",
        "tle_line2": "2 30740  98.6902  86.6793 0032435 150.5496 209.7534 14.51761735975759"
      },
      "geometry": {
        "type": "Point",
        "coordinates": [
          -91.01181247262768,
          7.836082942119939
        ]
      }
    },
    {
      "type": "Feature",
      "properties": {
        "norad_id": 30741,
        "name": "FENGYUN 1C DEB",
        "group": "fengyun-1c-debris",
        "lat": -47.48001887775069,
        "lon": 162.6105979675657,
        "alt_km": 856.114833239074,
        "timestamp": "2025-12-08T19:31:49.087586+00:00",
        "meta_object_name": "FENGYUN 1C DEB",
        "meta_object_id": "1999-025ATB",
        "meta_epoch": "2025-12-08T00:01:26.266944",
        "meta_mean_motion": 14.13230012,
        "meta_eccentricity": 0.00069385,
        "meta_inclination": 98.6797,
        "meta_ra_of_asc_node": 351.4118,
        "meta_arg_of_pericenter": 128.8068,
        "meta_mean_anomaly": 286.5158,
        "meta_ephemeris_type": 0,
        "meta_classification_type": "U",
        "meta_norad_cat_id": 30741,
        "meta_element_set_no": 999,
        "meta_rev_at_epoch": 96752,
        "meta_bstar": 0.00022266393,
        "meta_mean_motion_dot": 3.74e-06,
        "meta_mean_motion_ddot": 0,
        "tle_line1": "1 30741U 99025ATB 25342.00099846  .00000374  00000+0  22266-3 0  9996",
        "tle_line2": "2 30741  98.6797 351.4118 0006938 128.8068 286.5158 14.13230012967526"
      },
      "geometry": {
        "type": "Point",
        "coordinates": [
          162.6105979675657,
          -47.48001887775069
        ]
      }
    },
    {
      "type": "Feature",
      "properties": {
        "norad_id": 30742,
        "name": "FENGYUN 1C DEB",
        "group": "fengyun-1c-debris",
        "lat": -80.80436820386859,
        "lon": 132.63986202751633,
        "alt_km": 820.9602373664984,
        "timestamp": "2025-12-08T19:31:49.087596+00:00",
        "meta_object_name": "FENGYUN 1C DEB",
        "meta_object_id": "1999-025ATC",
        "meta_epoch": "2025-12-07T01:32:13.418880",
        "meta_mean_motion": 14.10324644,
        "meta_eccentricity": 0.0070834,
        "meta_inclination": 98.8678,
        "meta_ra_of_asc_node": 25.5742,
        "meta_arg_of_pericenter": 242.6981,
        "meta_mean_anomaly": 145.7422,
        "meta_ephemeris_type": 0,
        "meta_classification_type": "U",
        "meta_norad_cat_id": 30742,
        "meta_element_set_no": 999,
        "meta_rev_at_epoch": 95962,
        "meta_bstar": 0.0025769233,
        "meta_mean_motion_dot": 4.639e-05,
        "meta_mean_motion_ddot": 0,
        "tle_line1": "1 30742U 99025ATC 25341.06404420  .00004639  00000+0  25769-2 0  9998",
        "tle_line2": "2 30742  98.8678  25.5742 0070834 242.6981 145.7422 14.10324644959628"
      },
      "geometry": {
        "type": "Point",
        "coordinates": [
          132.63986202751633,
          -80.80436820386859
        ]
      }
    },
    {
      "type": "Feature",
      "properties": {
        "norad_id": 30744,
        "name": "FENGYUN 1C DEB",
        "group": "fengyun-1c-debris",
        "lat": 1.5824554237105668,
        "lon": 128.27800326188392,
        "alt_km": 602.656999744172,
        "timestamp": "2025-12-08T19:31:49.087606+00:00",
        "meta_object_name": "FENGYUN 1C DEB",
        "meta_object_id": "1999-025ATE",
        "meta_epoch": "2025-12-08T04:11:41.559648",
        "meta_mean_motion": 14.88870953,
        "meta_eccentricity": 0.00102491,
        "meta_inclination": 98.7317,
        "meta_ra_of_asc_node": 127.8173,
        "meta_arg_of_pericenter": 284.8059,
        "meta_mean_anomaly": 253.9009,
        "meta_ephemeris_type": 0,
        "meta_classification_type": "U",
        "meta_norad_cat_id": 30744,
        "meta_element_set_no": 999,
        "meta_rev_at_epoch": 98020,
        "meta_bstar": 0.0061006966,
        "meta_mean_motion_dot": 0.00057656,
        "meta_mean_motion_ddot": 0,
        "tle_line1": "1 30744U 99025ATE 25342.17478657  .00057656  00000+0  61007-2 0  9998",
        "tle_line2": "2 30744  98.7317 127.8173 0010249 284.8059 253.9009 14.88870953980206"
      },
      "geometry": {
        "type": "Point",
        "coordinates": [
          128.27800326188392,
          1.5824554237105668
        ]
      }
    },
    {
      "type": "Feature",
      "properties": {
        "norad_id": 30746,
        "name": "FENGYUN 1C DEB",
        "group": "fengyun-1c-debris",
        "lat": 0.7237606339891767,
        "lon": 163.1490659107162,
        "alt_km": 774.4206167470647,
        "timestamp": "2025-12-08T19:31:49.087615+00:00",
        "meta_object_name": "FENGYUN 1C DEB",
        "meta_object_id": "1999-025ATG",
        "meta_epoch": "2025-12-08T04:40:00.555168",
        "meta_mean_motion": 14.27500261,
        "meta_eccentricity": 0.00463054,
        "meta_inclination": 99.0575,
        "meta_ra_of_asc_node": 162.6231,
        "meta_arg_of_pericenter": 331.4722,
        "meta_mean_anomaly": 88.2459,
        "meta_ephemeris_type": 0,
        "meta_classification_type": "U",
        "meta_norad_cat_id": 30746,
        "meta_element_set_no": 999,
        "meta_rev_at_epoch": 97381,
        "meta_bstar": 0.0008136571,
        "meta_mean_motion_dot": 1.974e-05,
        "meta_mean_motion_ddot": 0,
        "tle_line1": "1 30746U 99025ATG 25342.19445087  .00001974  00000+0  81366-3 0  9996",
        "tle_line2": "2 30746  99.0575 162.6231 0046305 331.4722  88.2459 14.27500261973810"
      },
      "geometry": {
        "type": "Point",
        "coordinates": [
          163.1490659107162,
          0.7237606339891767
        ]
      }
    }
  ]
}